[{"OBJECT_NAME":"EUTELSAT 9B","OBJECT_ID":"2016-005A","EPOCH":"2026-04-04T04:16:20.912448","MEAN_MOTION":1.00270837,"ECCENTRICITY":0.00040017,"INCLINATION":0.0545,"RA_OF_ASC_NODE":55.6043,"ARG_OF_PERICENTER":289.6577,"MEAN_ANOMALY":280.3077,"EPHEMERIS_TYPE":0,"CLASSIFICATION_TYPE":"U","NORAD_CAT_ID":41310,"ELEMENT_SET_NO":999,"REV_AT_EPOCH":3737,"BSTAR":0,"MEAN_MOTION_DOT":6.1e-7,"MEAN_MOTION_DDOT":0},{"OBJECT_NAME":"EUTELSAT 65 WEST A","OBJECT_ID":"2016-014A","EPOCH":"2026-04-04T05:37:50.596032","MEAN_MOTION":1.00271662,"ECCENTRICITY":0.00022938,"INCLINATION":0.0653,"RA_OF_ASC_NODE":324.7759,"ARG_OF_PERICENTER":50.1685,"MEAN_ANOMALY":196.8739,"EPHEMERIS_TYPE":0,"CLASSIFICATION_TYPE":"U","NORAD_CAT_ID":41382,"ELEMENT_SET_NO":999,"REV_AT_EPOCH":3678,"BSTAR":0,"MEAN_MOTION_DOT":-2.77e-6,"MEAN_MOTION_DDOT":0},{"OBJECT_NAME":"EUTELSAT 117 WEST B","OBJECT_ID":"2016-038B","EPOCH":"2026-04-04T01:57:41.711328","MEAN_MOTION":1.00271113,"ECCENTRICITY":3.619e-5,"INCLINATION":0.0176,"RA_OF_ASC_NODE":54.8867,"ARG_OF_PERICENTER":214.5742,"MEAN_ANOMALY":195.3788,"EPHEMERIS_TYPE":0,"CLASSIFICATION_TYPE":"U","NORAD_CAT_ID":41589,"ELEMENT_SET_NO":999,"REV_AT_EPOCH":3592,"BSTAR":0,"MEAN_MOTION_DOT":-1.3e-7,"MEAN_MOTION_DDOT":0},{"OBJECT_NAME":"EUTELSAT 172B","OBJECT_ID":"2017-029B","EPOCH":"2026-04-04T05:02:53.947968","MEAN_MOTION":1.00272312,"ECCENTRICITY":1.386e-5,"INCLINATION":0.0206,"RA_OF_ASC_NODE":159.6727,"ARG_OF_PERICENTER":272.9185,"MEAN_ANOMALY":7.658,"EPHEMERIS_TYPE":0,"CLASSIFICATION_TYPE":"U","NORAD_CAT_ID":42741,"ELEMENT_SET_NO":999,"REV_AT_EPOCH":3299,"BSTAR":0,"MEAN_MOTION_DOT":-6.0e-8,"MEAN_MOTION_DDOT":0},{"OBJECT_NAME":"EUTELSAT 7C","OBJECT_ID":"2019-034B","EPOCH":"2026-04-04T04:15:43.471872","MEAN_MOTION":1.00270423,"ECCENTRICITY":0.00033361,"INCLINATION":0.0645,"RA_OF_ASC_NODE":183.4861,"ARG_OF_PERICENTER":178.6382,"MEAN_ANOMALY":261.3033,"EPHEMERIS_TYPE":0,"CLASSIFICATION_TYPE":"U","NORAD_CAT_ID":44334,"ELEMENT_SET_NO":999,"REV_AT_EPOCH":609,"BSTAR":0,"MEAN_MOTION_DOT":4.7e-7,"MEAN_MOTION_DDOT":0},{"OBJECT_NAME":"EUTELSAT 5 WEST B","OBJECT_ID":"2019-067A","EPOCH":"2026-04-04T04:12:21.295008","MEAN_MOTION":1.00272696,"ECCENTRICITY":0.000344,"INCLINATION":0.0659,"RA_OF_ASC_NODE":10.2087,"ARG_OF_PERICENTER":12.9125,"MEAN_ANOMALY":227.4504,"EPHEMERIS_TYPE":0,"CLASSIFICATION_TYPE":"U","NORAD_CAT_ID":44624,"ELEMENT_SET_NO":999,"REV_AT_EPOCH":2369,"BSTAR":0,"MEAN_MOTION_DOT":-4.3e-7,"MEAN_MOTION_DDOT":0},{"OBJECT_NAME":"EUTELSAT KONNECT","OBJECT_ID":"2020-005B","EPOCH":"2026-04-04T04:15:50.960160","MEAN_MOTION":1.00272684,"ECCENTRICITY":0.0001312,"INCLINATION":0.0675,"RA_OF_ASC_NODE":94.9494,"ARG_OF_PERICENTER":219.5268,"MEAN_ANOMALY":309.1953,"EPHEMERIS_TYPE":0,"CLASSIFICATION_TYPE":"U","NORAD_CAT_ID":45027,"ELEMENT_SET_NO":999,"REV_AT_EPOCH":2359,"BSTAR":0,"MEAN_MOTION_DOT":4.9e-7,"MEAN_MOTION_DDOT":0},{"OBJECT_NAME":"EUTELSAT QUANTUM","OBJECT_ID":"2021-069B","EPOCH":"2026-04-04T05:50:38.728320","MEAN_MOTION":1.00270251,"ECCENTRICITY":0.00022665,"INCLINATION":0.0054,"RA_OF_ASC_NODE":232.5232,"ARG_OF_PERICENTER":142.0726,"MEAN_ANOMALY":313.3207,"EPHEMERIS_TYPE":0,"CLASSIFICATION_TYPE":"U","NORAD_CAT_ID":49056,"ELEMENT_SET_NO":999,"REV_AT_EPOCH":1718,"BSTAR":0,"MEAN_MOTION_DOT":1.26e-6,"MEAN_MOTION_DDOT":0},{"OBJECT_NAME":"EUTELSAT KONNECT VHTS","OBJECT_ID":"2022-110A","EPOCH":"2026-04-04T04:14:28.592448","MEAN_MOTION":1.00270804,"ECCENTRICITY":0.00028435,"INCLINATION":0.063,"RA_OF_ASC_NODE":100.1826,"ARG_OF_PERICENTER":250.7365,"MEAN_ANOMALY":267.8896,"EPHEMERIS_TYPE":0,"CLASSIFICATION_TYPE":"U","NORAD_CAT_ID":53765,"ELEMENT_SET_NO":999,"REV_AT_EPOCH":609,"BSTAR":0,"MEAN_MOTION_DOT":1.6e-7,"MEAN_MOTION_DDOT":0},{"OBJECT_NAME":"EUTELSAT HOTBIRD 13F","OBJECT_ID":"2022-134A","EPOCH":"2026-04-03T08:32:38.564160","MEAN_MOTION":1.00272917,"ECCENTRICITY":0.00020106,"INCLINATION":0.0492,"RA_OF_ASC_NODE":285.9427,"ARG_OF_PERICENTER":77.5677,"MEAN_ANOMALY":329.3284,"EPHEMERIS_TYPE":0,"CLASSIFICATION_TYPE":"U","NORAD_CAT_ID":54048,"ELEMENT_SET_NO":999,"REV_AT_EPOCH":1262,"BSTAR":0,"MEAN_MOTION_DOT":8.4e-7,"MEAN_MOTION_DDOT":0},{"OBJECT_NAME":"EUTELSAT HOTBIRD 13G","OBJECT_ID":"2022-146A","EPOCH":"2026-04-04T04:47:38.576256","MEAN_MOTION":1.00273022,"ECCENTRICITY":0.00019891,"INCLINATION":0.0407,"RA_OF_ASC_NODE":229.3293,"ARG_OF_PERICENTER":305.6943,"MEAN_ANOMALY":102.4055,"EPHEMERIS_TYPE":0,"CLASSIFICATION_TYPE":"U","NORAD_CAT_ID":54225,"ELEMENT_SET_NO":999,"REV_AT_EPOCH":672,"BSTAR":0,"MEAN_MOTION_DOT":8.7e-7,"MEAN_MOTION_DDOT":0},{"OBJECT_NAME":"EUTELSAT 10B","OBJECT_ID":"2022-157A","EPOCH":"2026-04-04T04:16:35.889024","MEAN_MOTION":1.00269221,"ECCENTRICITY":0.00018426,"INCLINATION":0.0628,"RA_OF_ASC_NODE":96.0555,"ARG_OF_PERICENTER":15.6845,"MEAN_ANOMALY":154.8542,"EPHEMERIS_TYPE":0,"CLASSIFICATION_TYPE":"U","NORAD_CAT_ID":54259,"ELEMENT_SET_NO":999,"REV_AT_EPOCH":1228,"BSTAR":0,"MEAN_MOTION_DOT":6.7e-7,"MEAN_MOTION_DDOT":0},{"OBJECT_NAME":"EUTELSAT 36D","OBJECT_ID":"2024-059A","EPOCH":"2026-04-03T16:25:16.567392","MEAN_MOTION":1.00272585,"ECCENTRICITY":5.75e-5,"INCLINATION":0.0162,"RA_OF_ASC_NODE":149.5181,"ARG_OF_PERICENTER":288.5605,"MEAN_ANOMALY":36.1074,"EPHEMERIS_TYPE":0,"CLASSIFICATION_TYPE":"U","NORAD_CAT_ID":59346,"ELEMENT_SET_NO":999,"REV_AT_EPOCH":740,"BSTAR":0,"MEAN_MOTION_DOT":1.54e-6,"MEAN_MOTION_DDOT":0}]
