EUTELSAT 9B             
1 41310U 16005A   26094.17801982  .00000061  00000+0  00000+0 0  9993
2 41310   0.0545  55.6043 0004001 289.6577 280.3077  1.00270837 37372
EUTELSAT 65 WEST A      
1 41382U 16014A   26094.23461338 -.00000277  00000+0  00000+0 0  9996
2 41382   0.0653 324.7759 0002293  50.1685 196.8739  1.00271662 36784
EUTELSAT 117 WEST B     
1 41589U 16038B   26094.08173277 -.00000013  00000+0  00000+0 0  9994
2 41589   0.0176  54.8867 0000361 214.5742 195.3788  1.00271113 35922
EUTELSAT 172B           
1 42741U 17029B   26094.21034662 -.00000006  00000+0  00000+0 0  9997
2 42741   0.0206 159.6727 0000138 272.9185   7.6580  1.00272312 32998
EUTELSAT 7C             
1 44334U 19034B   26094.17758648  .00000047  00000+0  00000+0 0  9991
2 44334   0.0645 183.4861 0003336 178.6382 261.3033  1.00270423  6098
EUTELSAT 5 WEST B       
1 44624U 19067A   26094.17524647 -.00000043  00000+0  00000+0 0  9996
2 44624   0.0659  10.2087 0003440  12.9125 227.4504  1.00272696 23698
EUTELSAT KONNECT        
1 45027U 20005B   26094.17767315  .00000049  00000+0  00000+0 0  9994
2 45027   0.0675  94.9494 0001312 219.5268 309.1953  1.00272684 23596
EUTELSAT QUANTUM        
1 49056U 21069B   26094.24350380  .00000126  00000+0  00000+0 0  9995
2 49056   0.0054 232.5232 0002266 142.0726 313.3207  1.00270251 17186
EUTELSAT KONNECT VHTS   
1 53765U 22110A   26094.17671982  .00000016  00000+0  00000+0 0  9999
2 53765   0.0630 100.1826 0002843 250.7365 267.8896  1.00270804  6093
EUTELSAT HOTBIRD 13F    
1 54048U 22134A   26093.35600190  .00000084  00000+0  00000+0 0  9997
2 54048   0.0492 285.9427 0002010  77.5677 329.3284  1.00272917 12628
EUTELSAT HOTBIRD 13G    
1 54225U 22146A   26094.19975204  .00000087  00000+0  00000+0 0  9994
2 54225   0.0407 229.3293 0001989 305.6943 102.4055  1.00273022  6727
EUTELSAT 10B            
1 54259U 22157A   26094.17819316  .00000067  00000+0  00000+0 0  9990
2 54259   0.0628  96.0555 0001842  15.6845 154.8542  1.00269221 12282
EUTELSAT 36D            
1 59346U 24059A   26093.68421953  .00000154  00000+0  00000+0 0  9993
2 59346   0.0162 149.5181 0000575 288.5605  36.1074  1.00272585  7400
